#Pass ID: 20260113_231529_FENGYUN 3G
#Satellite: FENGYUN 3G
#Configuration: FENGYUN 3G
#Start time: 2026-01-13 23:15:34.247881

#LorettStation: 1.0.0 05.05.2024
#Station: Regia
#Location: 37.494653 lon 55.929028 lat
#TLE: 1 56232U 23055A   26012.86208774  .00023645  00000+0  37211-3 0  9992
#TLE: 2 56232  49.9941  66.9620 0004224  17.1970 342.9140 15.53417230155861

#Time	Az	El	Level	SNR
#Closed at: 2026-01-13 23:15:29.249282